{"type": "FeatureCollection", "features": [ {"type": "Feature", "properties": {"norad_id": 30306, "name": "FENGYUN 1C DEB", "group": "fengyun-1c-debris", "lat": -14.73299531408275, "lon": -151.94750976500808, "alt_km": 875.9395151385243, "timestamp": "2025-12-15T07:02:37.891738+00:00", "meta": {"OBJECT_NAME": "FENGYUN 1C DEB", "OBJECT_ID": "1999-025ZT", "EPOCH": "2025-12-14T20:02:34.555488", "MEAN_MOTION": 14.28215847, "ECCENTRICITY": 0.01132198, "INCLINATION": 98.5876, "RA_OF_ASC_NODE": 29.8789, "ARG_OF_PERICENTER": 351.3457, "MEAN_ANOMALY": 8.577, "EPHEMERIS_TYPE": 0, "CLASSIFICATION_TYPE": "U", "NORAD_CAT_ID": 30306, "ELEMENT_SET_NO": 999, "REV_AT_EPOCH": 97711, "BSTAR": 0.00082491154, "MEAN_MOTION_DOT": 2.157e-05, "MEAN_MOTION_DDOT": 0}, "tle": {"line1": "1 30306U 99025ZT  25348.83512217  .00002157  00000+0  82491-3 0  9999", "line2": "2 30306  98.5876  29.8789 0113219 351.3457   8.5770 14.28215847977119"}}, "geometry": {"type": "Point", "coordinates": [-151.94750976500808, -14.73299531408275]}}, {"type": "Feature", "properties": {"norad_id": 30309, "name": "FENGYUN 1C DEB", "group": "fengyun-1c-debris", "lat": 39.24690675895544, "lon": -125.91775129917544, "alt_km": 864.6175024818485, "timestamp": "2025-12-15T07:02:37.891750+00:00", "meta": {"OBJECT_NAME": "FENGYUN 1C DEB", "OBJECT_ID": "1999-025ZW", "EPOCH": "2025-12-14T02:47:55.377024", "MEAN_MOTION": 13.93521193, "ECCENTRICITY": 0.00934266, "INCLINATION": 99.226, "RA_OF_ASC_NODE": 45.2783, "ARG_OF_PERICENTER": 188.1188, "MEAN_ANOMALY": 171.8465, "EPHEMERIS_TYPE": 0, "CLASSIFICATION_TYPE": "U", "NORAD_CAT_ID": 30309, "ELEMENT_SET_NO": 999, "REV_AT_EPOCH": 96052, "BSTAR": 0.00030822464, "MEAN_MOTION_DOT": 3.74e-06, "MEAN_MOTION_DDOT": 0}, "tle": {"line1": "1 30309U 99025ZW  25348.11661316  .00000374  00000+0  30822-3 0  9998", "line2": "2 30309  99.2260  45.2783 0093426 188.1188 171.8465 13.93521193960524"}}, "geometry": {"type": "Point", "coordinates": [-125.91775129917544, 39.24690675895544]}}, {"type": "Feature", "properties": {"norad_id": 30310, "name": "FENGYUN 1C DEB", "group": "fengyun-1c-debris", "lat": -15.784201846810369, "lon": -173.63748717979837, "alt_km": 1026.1309212240349, "timestamp": "2025-12-15T07:02:37.891761+00:00", "meta": {"OBJECT_NAME": "FENGYUN 1C DEB", "OBJECT_ID": "1999-025ZX", "EPOCH": "2025-12-13T18:18:15.746400", "MEAN_MOTION": 14.08390292, "ECCENTRICITY": 0.02408446, "INCLINATION": 98.6654, "RA_OF_ASC_NODE": 7.3611, "ARG_OF_PERICENTER": 354.6021, "MEAN_ANOMALY": 5.256, "EPHEMERIS_TYPE": 0, "CLASSIFICATION_TYPE": "U", "NORAD_CAT_ID": 30310, "ELEMENT_SET_NO": 999, "REV_AT_EPOCH": 96746, "BSTAR": 0.00091214571, "MEAN_MOTION_DOT": 1.995e-05, "MEAN_MOTION_DDOT": 0}, "tle": {"line1": "1 30310U 99025ZX  25347.76268225  .00001995  00000+0  91215-3 0  9995", "line2": "2 30310  98.6654   7.3611 0240844 354.6021   5.2560 14.08390292967466"}}, "geometry": {"type": "Point", "coordinates": [-173.63748717979837, -15.784201846810369]}}, {"type": "Feature", "properties": {"norad_id": 30311, "name": "FENGYUN 1C DEB", "group": "fengyun-1c-debris", "lat": 63.388467036093886, "lon": -76.37079553990493, "alt_km": 932.1704873150647, "timestamp": "2025-12-15T07:02:37.891771+00:00", "meta": {"OBJECT_NAME": "FENGYUN 1C DEB", "OBJECT_ID": "1999-025ZY", "EPOCH": "2025-12-14T20:01:13.564128", "MEAN_MOTION": 13.77890816, "ECCENTRICITY": 0.01653783, "INCLINATION": 99.1394, "RA_OF_ASC_NODE": 84.4452, "ARG_OF_PERICENTER": 191.4507, "MEAN_ANOMALY": 168.2863, "EPHEMERIS_TYPE": 0, "CLASSIFICATION_TYPE": "U", "NORAD_CAT_ID": 30311, "ELEMENT_SET_NO": 999, "REV_AT_EPOCH": 94989, "BSTAR": 0.00044857389, "MEAN_MOTION_DOT": 4.55e-06, "MEAN_MOTION_DDOT": 0}, "tle": {"line1": "1 30311U 99025ZY  25348.83418477  .00000455  00000+0  44857-3 0  9991", "line2": "2 30311  99.1394  84.4452 0165378 191.4507 168.2863 13.77890816949892"}}, "geometry": {"type": "Point", "coordinates": [-76.37079553990493, 63.388467036093886]}}, {"type": "Feature", "properties": {"norad_id": 30312, "name": "FENGYUN 1C DEB", "group": "fengyun-1c-debris", "lat": 62.634577002714494, "lon": -93.76734787802934, "alt_km": 732.4100457160757, "timestamp": "2025-12-15T07:02:37.891781+00:00", "meta": {"OBJECT_NAME": "FENGYUN 1C DEB", "OBJECT_ID": "1999-025ZZ", "EPOCH": "2025-12-14T17:48:24.655392", "MEAN_MOTION": 14.45872292, "ECCENTRICITY": 0.00119956, "INCLINATION": 98.866, "RA_OF_ASC_NODE": 68.1044, "ARG_OF_PERICENTER": 203.6953, "MEAN_ANOMALY": 283.1752, "EPHEMERIS_TYPE": 0, "CLASSIFICATION_TYPE": "U", "NORAD_CAT_ID": 30312, "ELEMENT_SET_NO": 999, "REV_AT_EPOCH": 97949, "BSTAR": 0.0020155106, "MEAN_MOTION_DOT": 7.126e-05, "MEAN_MOTION_DDOT": 0}, "tle": {"line1": "1 30312U 99025ZZ  25348.74195203  .00007126  00000+0  20155-2 0  9997", "line2": "2 30312  98.8660  68.1044 0011995 203.6953 283.1752 14.45872292979494"}}, "geometry": {"type": "Point", "coordinates": [-93.76734787802934, 62.634577002714494]}}, {"type": "Feature", "properties": {"norad_id": 30313, "name": "FENGYUN 1C DEB", "group": "fengyun-1c-debris", "lat": 13.598593585044167, "lon": 73.32729180176207, "alt_km": 779.3304596220214, "timestamp": "2025-12-15T07:02:37.891792+00:00", "meta": {"OBJECT_NAME": "FENGYUN 1C DEB", "OBJECT_ID": "1999-025AAA", "EPOCH": "2025-12-14T19:47:11.471712", "MEAN_MOTION": 14.25473003, "ECCENTRICITY": 0.00564, "INCLINATION": 98.8752, "RA_OF_ASC_NODE": 75.0189, "ARG_OF_PERICENTER": 329.7852, "MEAN_ANOMALY": 157.9333, "EPHEMERIS_TYPE": 0, "CLASSIFICATION_TYPE": "U", "NORAD_CAT_ID": 30313, "ELEMENT_SET_NO": 999, "REV_AT_EPOCH": 97119, "BSTAR": 0.0015231378, "MEAN_MOTION_DOT": 3.614e-05, "MEAN_MOTION_DDOT": 0}, "tle": {"line1": "1 30313U 99025AAA 25348.82443833  .00003614  00000+0  15231-2 0  9999", "line2": "2 30313  98.8752  75.0189 0056400 329.7852 157.9333 14.25473003971199"}}, "geometry": {"type": "Point", "coordinates": [73.32729180176207, 13.598593585044167]}}, {"type": "Feature", "properties": {"norad_id": 30314, "name": "FENGYUN 1C DEB", "group": "fengyun-1c-debris", "lat": 6.416918665305012, "lon": 0.9023637823005232, "alt_km": 995.0262467541543, "timestamp": "2025-12-15T07:02:37.891802+00:00", "meta": {"OBJECT_NAME": "FENGYUN 1C DEB", "OBJECT_ID": "1999-025AAB", "EPOCH": "2025-12-11T11:23:18.286944", "MEAN_MOTION": 14.0118585, "ECCENTRICITY": 0.01424052, "INCLINATION": 98.3809, "RA_OF_ASC_NODE": 176.4445, "ARG_OF_PERICENTER": 1.4637, "MEAN_ANOMALY": 358.6919, "EPHEMERIS_TYPE": 0, "CLASSIFICATION_TYPE": "U", "NORAD_CAT_ID": 30314, "ELEMENT_SET_NO": 999, "REV_AT_EPOCH": 96091, "BSTAR": 0.0016680196, "MEAN_MOTION_DOT": 2.699e-05, "MEAN_MOTION_DDOT": 0}, "tle": {"line1": "1 30314U 99025AAB 25345.47451721  .00002699  00000+0  16680-2 0  9994", "line2": "2 30314  98.3809 176.4445 0142405   1.4637 358.6919 14.01185850960917"}}, "geometry": {"type": "Point", "coordinates": [0.9023637823005232, 6.416918665305012]}}, {"type": "Feature", "properties": {"norad_id": 30315, "name": "FENGYUN 1C DEB", "group": "fengyun-1c-debris", "lat": 36.7786741238588, "lon": -174.77484482080425, "alt_km": 847.6899439004574, "timestamp": "2025-12-15T07:02:37.891812+00:00", "meta": {"OBJECT_NAME": "FENGYUN 1C DEB", "OBJECT_ID": "1999-025AAC", "EPOCH": "2025-12-14T14:00:18.594720", "MEAN_MOTION": 14.19067245, "ECCENTRICITY": 0.00351388, "INCLINATION": 98.6017, "RA_OF_ASC_NODE": 358.0395, "ARG_OF_PERICENTER": 355.0099, "MEAN_ANOMALY": 122.6196, "EPHEMERIS_TYPE": 0, "CLASSIFICATION_TYPE": "U", "NORAD_CAT_ID": 30315, "ELEMENT_SET_NO": 999, "REV_AT_EPOCH": 97733, "BSTAR": 0.00040460343, "MEAN_MOTION_DOT": 8.08e-06, "MEAN_MOTION_DDOT": 0}, "tle": {"line1": "1 30315U 99025AAC 25348.58354855  .00000808  00000+0  40460-3 0  9994", "line2": "2 30315  98.6017 358.0395 0035138 355.0099 122.6196 14.19067245977334"}}, "geometry": {"type": "Point", "coordinates": [-174.77484482080425, 36.7786741238588]}}, {"type": "Feature", "properties": {"norad_id": 30316, "name": "FENGYUN 1C DEB", "group": "fengyun-1c-debris", "lat": 4.103702887963029, "lon": -87.57500861751456, "alt_km": 728.4537839213162, "timestamp": "2025-12-15T07:02:37.891823+00:00", "meta": {"OBJECT_NAME": "FENGYUN 1C DEB", "OBJECT_ID": "1999-025AAD", "EPOCH": "2025-12-14T18:41:50.013312", "MEAN_MOTION": 14.56113173, "ECCENTRICITY": 0.0035547, "INCLINATION": 98.6477, "RA_OF_ASC_NODE": 91.2664, "ARG_OF_PERICENTER": 33.429, "MEAN_ANOMALY": 326.914, "EPHEMERIS_TYPE": 0, "CLASSIFICATION_TYPE": "U", "NORAD_CAT_ID": 30316, "ELEMENT_SET_NO": 999, "REV_AT_EPOCH": 98366, "BSTAR": 0.0016538345, "MEAN_MOTION_DOT": 7.313e-05, "MEAN_MOTION_DDOT": 0}, "tle": {"line1": "1 30316U 99025AAD 25348.77905108  .00007313  00000+0  16538-2 0  9995", "line2": "2 30316  98.6477  91.2664 0035547  33.4290 326.9140 14.56113173983668"}}, "geometry": {"type": "Point", "coordinates": [-87.57500861751456, 4.103702887963029]}}, {"type": "Feature", "properties": {"norad_id": 30317, "name": "FENGYUN 1C DEB", "group": "fengyun-1c-debris", "lat": 23.00990629910119, "lon": -14.072425328818293, "alt_km": 876.4423556204983, "timestamp": "2025-12-15T07:02:37.891835+00:00", "meta": {"OBJECT_NAME": "FENGYUN 1C DEB", "OBJECT_ID": "1999-025AAE", "EPOCH": "2025-12-14T22:23:58.258752", "MEAN_MOTION": 14.06949086, "ECCENTRICITY": 0.00241169, "INCLINATION": 98.7865, "RA_OF_ASC_NODE": 349.3437, "ARG_OF_PERICENTER": 270.305, "MEAN_ANOMALY": 89.5355, "EPHEMERIS_TYPE": 0, "CLASSIFICATION_TYPE": "U", "NORAD_CAT_ID": 30317, "ELEMENT_SET_NO": 999, "REV_AT_EPOCH": 97044, "BSTAR": 0.00028613131, "MEAN_MOTION_DOT": 4.35e-06, "MEAN_MOTION_DDOT": 0}, "tle": {"line1": "1 30317U 99025AAE 25348.93331318  .00000435  00000+0  28613-3 0  9996", "line2": "2 30317  98.7865 349.3437 0024116 270.3050  89.5355 14.06949086970449"}}, "geometry": {"type": "Point", "coordinates": [-14.072425328818293, 23.00990629910119]}}]}